QIANFAN-41              
1 62242U 24232F   25228.55476818  .00000047  00000+0  54421-4 0  9992
2 62242  88.9931  53.1351 0014360 165.1750 194.9825 13.50960627 83292
QIANFAN-42              
1 62243U 24232G   25228.54221136  .00000144  00000+0  56077-4 0  9990
2 62243  88.9931  50.8672 0017219 108.4574 251.8492 14.24337537 84545
QIANFAN-43              
1 62244U 24232H   25228.55067595  .00000056  00000+0  68401-4 0  9995
2 62244  88.9937  53.1956 0015707 171.0935 189.0497 13.50963908 51906
QIANFAN-44              
1 62245U 24232J   25228.53831600  .00000060  00000+0  74276-4 0  9992
2 62245  88.9934  53.0094 0014019 167.2760 192.8748 13.50963325 83374
QIANFAN-45              
1 62246U 24232K   25228.57947661  .00000053  00000+0  63445-4 0  9990
2 62246  88.9937  53.1477 0014677 167.2257 192.9269 13.50959075 83304
QIANFAN-46              
1 62247U 24232L   25228.53007888  .00000040  00000+0  43667-4 0  9995
2 62247  88.9933  53.2266 0014553 172.7725 187.3638 13.50961084 83257
QIANFAN-47              
1 62248U 24232M   25228.53412323  .00000050  00000+0  59265-4 0  9992
2 62248  88.9929  53.1638 0015005 172.1110 188.0280 13.50960870 83286
QIANFAN-48              
1 62249U 24232N   25228.57123113  .00000062  00000+0  77317-4 0  9994
2 62249  88.9933  53.1572 0017176 175.6229 184.5075 13.50963886 83293
